STARLINK-2022           
1 47643U 21012Z   24168.92602347  .00003661  00000+0  26452-3 0  9991
2 47643  53.0552   3.2237 0001393  88.2879 271.8270 15.06407605185196
